start=new Date('2023-03-02T00:00:00.000Z').valueOf();
sats=[{"GP_ID":"227318901","TLE_LINE1":"1 49143U 21082P   23060.53221199 -.00001100  00000-0 -84462-4 0  9999","APOAPSIS":"574.242","TLE_LINE2":"2 49143  70.0036 178.4252 0003064 271.1950  88.8858 14.98312321 82195","ECCENTRICITY":"0.00030640","EPOCH":"2023-03-01T12:46:23.115936","CENTER_NAME":"EARTH","FILE":"3848834","SEMIMAJOR_AXIS":"6950.248","PERIAPSIS":"569.983","BSTAR":"-0.00008446200000","LAUNCH_DATE":"2021-09-14","OBJECT_TYPE":"PAYLOAD","MEAN_MOTION_DDOT":"0.0000000000000","INCLINATION":"70.0036","MEAN_ELEMENT_THEORY":"SGP4","DECAY_DATE":null,"MEAN_MOTION":"14.98312321","EPHEMERIS_TYPE":"0","CLASSIFICATION_TYPE":"U","OBJECT_ID":"2021-082P","NORAD_CAT_ID":"49143","REF_FRAME":"TEME","RA_OF_ASC_NODE":"178.4252","REV_AT_EPOCH":"8219","MEAN_MOTION_DOT":"-0.00001100","OBJECT_NAME":"STARLINK-3109","ELEMENT_SET_NO":"999","ARG_OF_PERICENTER":"271.1950","SITE":"AFWTR","TIME_SYSTEM":"UTC","MEAN_ANOMALY":"88.8858","RCS_SIZE":"LARGE","COUNTRY_CODE":"US","PERIOD":"96.108"},{"MEAN_MOTION_DOT":"-0.00000860","OBJECT_NAME":"STARLINK-3100","ELEMENT_SET_NO":"999","OBJECT_ID":"2021-082Q","CLASSIFICATION_TYPE":"U","RA_OF_ASC_NODE":"198.3601","REF_FRAME":"TEME","NORAD_CAT_ID":"49144","REV_AT_EPOCH":"8059","EPHEMERIS_TYPE":"0","MEAN_ELEMENT_THEORY":"SGP4","DECAY_DATE":null,"MEAN_MOTION":"14.98318400","COUNTRY_CODE":"US","PERIOD":"96.108","TIME_SYSTEM":"UTC","MEAN_ANOMALY":"91.3131","RCS_SIZE":"LARGE","SITE":"AFWTR","ARG_OF_PERICENTER":"268.7734","SEMIMAJOR_AXIS":"6950.229","EPOCH":"2023-03-01T13:25:40.387872","CENTER_NAME":"EARTH","FILE":"3848834","TLE_LINE1":"1 49144U 21082Q   23060.55949523 -.00000860  00000-0 -64320-4 0  9993","ECCENTRICITY":"0.00025690","TLE_LINE2":"2 49144  70.0006 198.3601 0002569 268.7734  91.3131 14.98318400 80592","APOAPSIS":"573.879","GP_ID":"227317653","INCLINATION":"70.0006","MEAN_MOTION_DDOT":"0.0000000000000","PERIAPSIS":"570.308","BSTAR":"-0.00006432000000","LAUNCH_DATE":"2021-09-14","OBJECT_TYPE":"PAYLOAD"},{"EPOCH":"2023-03-01T13:50:05.843328","CENTER_NAME":"EARTH","FILE":"3848834","SEMIMAJOR_AXIS":"6950.275","GP_ID":"227317903","TLE_LINE1":"1 49145U 21082R   23060.57645652 -.00003620  00000-0 -29600-3 0  9990","TLE_LINE2":"2 49145  70.0030 158.3229 0002596 265.6066  94.4796 14.98303495 81574","APOAPSIS":"573.944","ECCENTRICITY":"0.00025960","MEAN_MOTION_DDOT":"0.0000000000000","INCLINATION":"70.0030","PERIAPSIS":"570.336","BSTAR":"-0.00029600000000","LAUNCH_DATE":"2021-09-14","OBJECT_TYPE":"PAYLOAD","CLASSIFICATION_TYPE":"U","OBJECT_ID":"2021-082R","REF_FRAME":"TEME","NORAD_CAT_ID":"49145","RA_OF_ASC_NODE":"158.3229","REV_AT_EPOCH":"8157","MEAN_MOTION_DOT":"-0.00003620","OBJECT_NAME":"STARLINK-3119","ELEMENT_SET_NO":"999","MEAN_ELEMENT_THEORY":"SGP4","MEAN_MOTION":"14.98303495","DECAY_DATE":null,"EPHEMERIS_TYPE":"0","COUNTRY_CODE":"US","PERIOD":"96.109","ARG_OF_PERICENTER":"265.6066","SITE":"AFWTR","TIME_SYSTEM":"UTC","MEAN_ANOMALY":"94.4796","RCS_SIZE":"LARGE"},{"DECAY_DATE":null,"MEAN_MOTION":"14.98319129","MEAN_ELEMENT_THEORY":"SGP4","EPHEMERIS_TYPE":"0","REV_AT_EPOCH":"8228","OBJECT_ID":"2021-082S","CLASSIFICATION_TYPE":"U","RA_OF_ASC_NODE":"177.6013","NORAD_CAT_ID":"49146","REF_FRAME":"TEME","OBJECT_NAME":"STARLINK-3116","ELEMENT_SET_NO":"999","MEAN_MOTION_DOT":"-0.00001196","ARG_OF_PERICENTER":"273.2039","SITE":"AFWTR","MEAN_ANOMALY":"86.8781","RCS_SIZE":"LARGE","TIME_SYSTEM":"UTC","PERIOD":"96.108","COUNTRY_CODE":"US","GP_ID":"227318654","TLE_LINE1":"1 49146U 21082S   23060.86123858 -.00001196  00000-0 -92445-4 0  9996","TLE_LINE2":"2 49146  70.0000 177.6013 0002966 273.2039  86.8781 14.98319129 82282","APOAPSIS":"574.153","ECCENTRICITY":"0.00029660","CENTER_NAME":"EARTH","FILE":"3848834","EPOCH":"2023-03-01T20:40:11.013312","SEMIMAJOR_AXIS":"6950.227","LAUNCH_DATE":"2021-09-14","OBJECT_TYPE":"PAYLOAD","PERIAPSIS":"570.030","BSTAR":"-0.00009244500000","MEAN_MOTION_DDOT":"0.0000000000000","INCLINATION":"70.0000"},{"ARG_OF_PERICENTER":"262.0330","SITE":"AFWTR","TIME_SYSTEM":"UTC","RCS_SIZE":"LARGE","MEAN_ANOMALY":"98.0576","COUNTRY_CODE":"US","PERIOD":"96.108","MEAN_ELEMENT_THEORY":"SGP4","MEAN_MOTION":"14.98319857","DECAY_DATE":null,"EPHEMERIS_TYPE":"0","NORAD_CAT_ID":"49147","REF_FRAME":"TEME","RA_OF_ASC_NODE":"158.2982","CLASSIFICATION_TYPE":"U","OBJECT_ID":"2021-082T","REV_AT_EPOCH":"8158","MEAN_MOTION_DOT":"-0.00005990","ELEMENT_SET_NO":"999","OBJECT_NAME":"STARLINK-3071","BSTAR":"-0.00049485000000","PERIAPSIS":"570.539","OBJECT_TYPE":"PAYLOAD","LAUNCH_DATE":"2021-09-14","MEAN_MOTION_DDOT":"0.0000000000000","INCLINATION":"70.0014","GP_ID":"227318402","ECCENTRICITY":"0.00022300","TLE_LINE2":"2 49147  70.0014 158.2982 0002230 262.0330  98.0576 14.98319857 81589","APOAPSIS":"573.639","TLE_LINE1":"1 49147U 21082T   23060.58599523 -.00005990  00000-0 -49485-3 0  9993","EPOCH":"2023-03-01T14:03:49.987872","FILE":"3848834","CENTER_NAME":"EARTH","SEMIMAJOR_AXIS":"6950.224"},{"BSTAR":"-0.00019555000000","PERIAPSIS":"569.813","OBJECT_TYPE":"PAYLOAD","LAUNCH_DATE":"2021-09-14","INCLINATION":"70.0022","MEAN_MOTION_DDOT":"0.0000000000000","TLE_LINE2":"2 49148  70.0022 178.2820 0003221 267.0336  93.0454 14.98332151 81081","APOAPSIS":"574.290","ECCENTRICITY":"0.00032210","TLE_LINE1":"1 49148U 21082U   23060.58943218 -.00002426  00000-0 -19555-3 0  9994","GP_ID":"227317154","SEMIMAJOR_AXIS":"6950.186","EPOCH":"2023-03-01T14:08:46.940352","FILE":"3848834","CENTER_NAME":"EARTH","TIME_SYSTEM":"UTC","RCS_SIZE":"LARGE","MEAN_ANOMALY":"93.0454","ARG_OF_PERICENTER":"267.0336","SITE":"AFWTR","COUNTRY_CODE":"US","PERIOD":"96.107","EPHEMERIS_TYPE":"0","MEAN_ELEMENT_THEORY":"SGP4","DECAY_DATE":null,"MEAN_MOTION":"14.98332151","MEAN_MOTION_DOT":"-0.00002426","ELEMENT_SET_NO":"999","OBJECT_NAME":"STARLINK-3048","REF_FRAME":"TEME","RA_OF_ASC_NODE":"178.2820","NORAD_CAT_ID":"49148","CLASSIFICATION_TYPE":"U","OBJECT_ID":"2021-082U","REV_AT_EPOCH":"8108"},{"COUNTRY_CODE":"US","PERIOD":"96.107","TIME_SYSTEM":"UTC","RCS_SIZE":"LARGE","MEAN_ANOMALY":"86.3914","SITE":"AFWTR","ARG_OF_PERICENTER":"273.6886","MEAN_MOTION_DOT":"-0.00000340","ELEMENT_SET_NO":"999","OBJECT_NAME":"STARLINK-3053","REF_FRAME":"TEME","RA_OF_ASC_NODE":"198.3720","NORAD_CAT_ID":"49149","OBJECT_ID":"2021-082V","CLASSIFICATION_TYPE":"U","REV_AT_EPOCH":"8178","EPHEMERIS_TYPE":"0","MEAN_ELEMENT_THEORY":"SGP4","MEAN_MOTION":"14.98327599","DECAY_DATE":null,"INCLINATION":"69.9994","MEAN_MOTION_DDOT":"0.0000000000000","BSTAR":"-0.00002067800000","PERIAPSIS":"569.884","OBJECT_TYPE":"PAYLOAD","LAUNCH_DATE":"2021-09-14","SEMIMAJOR_AXIS":"6950.200","EPOCH":"2023-03-01T13:18:48.192480","FILE":"3848834","CENTER_NAME":"EARTH","TLE_LINE2":"2 49149  69.9994 198.3720 0003138 273.6886  86.3914 14.98327599 81782","APOAPSIS":"574.246","ECCENTRICITY":"0.00031380","TLE_LINE1":"1 49149U 21082V   23060.55472445 -.00000340  00000-0 -20678-4 0  9993","GP_ID":"227317404"},{"INCLINATION":"70.0015","MEAN_MOTION_DDOT":"0.0000000000000","PERIAPSIS":"570.370","BSTAR":"-0.00033864000000","LAUNCH_DATE":"2021-09-14","OBJECT_TYPE":"PAYLOAD","SEMIMAJOR_AXIS":"6950.169","EPOCH":"2023-03-01T13:11:55.857984","CENTER_NAME":"EARTH","FILE":"3848834","TLE_LINE1":"1 49150U 21082W   23060.54995206 -.00004132  00000-0 -33864-3 0  9992","TLE_LINE2":"2 49150  70.0015 198.3873 0002394 278.1706  81.9181 14.98337737 81786","APOAPSIS":"573.698","ECCENTRICITY":"0.00023940","GP_ID":"227318155","COUNTRY_CODE":"US","PERIOD":"96.107","TIME_SYSTEM":"UTC","MEAN_ANOMALY":"81.9181","RCS_SIZE":"LARGE","ARG_OF_PERICENTER":"278.1706","SITE":"AFWTR","MEAN_MOTION_DOT":"-0.00004132","OBJECT_NAME":"STARLINK-3104","ELEMENT_SET_NO":"999","CLASSIFICATION_TYPE":"U","OBJECT_ID":"2021-082W","REF_FRAME":"TEME","NORAD_CAT_ID":"49150","RA_OF_ASC_NODE":"198.3873","REV_AT_EPOCH":"8178","EPHEMERIS_TYPE":"0","MEAN_ELEMENT_THEORY":"SGP4","DECAY_DATE":null,"MEAN_MOTION":"14.98337737"},{"COUNTRY_CODE":"US","PERIOD":"96.109","TIME_SYSTEM":"UTC","MEAN_ANOMALY":"76.7407","RCS_SIZE":"LARGE","SITE":"AFWTR","ARG_OF_PERICENTER":"283.3366","MEAN_MOTION_DOT":"-0.00000817","OBJECT_NAME":"STARLINK-3102","ELEMENT_SET_NO":"999","OBJECT_ID":"2021-082X","CLASSIFICATION_TYPE":"U","RA_OF_ASC_NODE":"158.3401","REF_FRAME":"TEME","NORAD_CAT_ID":"49151","REV_AT_EPOCH":"8277","EPHEMERIS_TYPE":"0","MEAN_ELEMENT_THEORY":"SGP4","DECAY_DATE":null,"MEAN_MOTION":"14.98304317","INCLINATION":"70.0021","MEAN_MOTION_DDOT":"0.0000000000000","PERIAPSIS":"569.730","BSTAR":"-0.00006070000000","LAUNCH_DATE":"2021-09-14","OBJECT_TYPE":"PAYLOAD","SEMIMAJOR_AXIS":"6950.272","EPOCH":"2023-03-01T13:36:21.475008","CENTER_NAME":"EARTH","FILE":"3848834","TLE_LINE1":"1 49151U 21082X   23060.56691522 -.00000817  00000-0 -60700-4 0  9995","TLE_LINE2":"2 49151  70.0021 158.3401 0003463 283.3366  76.7407 14.98304317 82776","APOAPSIS":"574.544","ECCENTRICITY":"0.00034630","GP_ID":"227318902"},{"MEAN_MOTION":"14.98292694","DECAY_DATE":null,"MEAN_ELEMENT_THEORY":"SGP4","EPHEMERIS_TYPE":"0","REV_AT_EPOCH":"8269","REF_FRAME":"TEME","NORAD_CAT_ID":"49152","RA_OF_ASC_NODE":"158.3993","CLASSIFICATION_TYPE":"U","OBJECT_ID":"2021-082Y","ELEMENT_SET_NO":"999","OBJECT_NAME":"STARLINK-3081","MEAN_MOTION_DOT":"-0.00008831","ARG_OF_PERICENTER":"275.6637","SITE":"AFWTR","RCS_SIZE":"LARGE","MEAN_ANOMALY":"84.4206","TIME_SYSTEM":"UTC","PERIOD":"96.109","COUNTRY_CODE":"US","GP_ID":"227317654","ECCENTRICITY":"0.00027720","TLE_LINE2":"2 49152  70.0035 158.3993 0002772 275.6637  84.4206 14.98292694 82693","APOAPSIS":"574.100","TLE_LINE1":"1 49152U 21082Y   23060.54306814 -.00008831  00000-0 -73396-3 0  9999","FILE":"3848834","CENTER_NAME":"EARTH","EPOCH":"2023-03-01T13:02:01.087296","SEMIMAJOR_AXIS":"6950.308","OBJECT_TYPE":"PAYLOAD","LAUNCH_DATE":"2021-09-14","BSTAR":"-0.00073396000000","PERIAPSIS":"570.247","MEAN_MOTION_DDOT":"0.0000000000000","INCLINATION":"70.0035"}];
